CALSPHERE 1             
1 00900U 64063C   23185.48357052  .00000587  00000+0  61141-3 0  9996
2 00900  90.1886  48.2028 0025406 316.8776 114.4024 13.74372687923112
CALSPHERE 2             
1 00902U 64063E   23185.14347153  .00000051  00000+0  62713-4 0  9995
2 00902  90.2032  51.5538 0020194 116.9417   4.1185 13.52754856710835
LCS 1                   
1 01361U 65034C   23184.41270362  .00000024  00000+0  20948-2 0  9992
2 01361  32.1364 220.7781 0007444 158.4062 201.6750  9.89303538103298
TEMPSAT 1               
1 01512U 65065E   23184.66107348  .00000042  00000+0  66055-4 0  9995
2 01512  89.9323 215.8952 0071204  41.3944  77.7040 13.33480764816173
CALSPHERE 4A            
1 01520U 65065H   23185.55463076  .00000092  00000+0  16124-3 0  9992
2 01520  89.9707 129.4813 0066750 266.5255 145.4824 13.35973228819080
OPS 5712 (P/L 160)      
1 02826U 67053A   23185.80398223  .00004025  00000+0  96703-3 0  9991
2 02826  69.9276 110.0753 0005854 190.5765 169.5249 14.54055797908731
OPS 5712 (P/L 153)      
1 02874U 67053H   23185.49521296  .00000040  00000+0  67437-4 0  9993
2 02874  69.9738 266.7878 0006770 177.5505 182.5635 13.96488092856648
SURCAL 150B             
1 02909U 67053J   23186.46794319  .00006251  00000+0  10496-2 0  9999
2 02909  69.9453  77.7250 0005149 209.6831 150.4021 14.70099424920266
RIGIDSPHERE 2 (LCS 4)   
1 05398U 71067E   23185.66902378  .00000792  00000+0  26675-3 0  9992
2 05398  87.6202 277.4293 0061784 201.8679 157.9881 14.34888383719281
COSMOS 2493 (SKRL-756 1)
1 39490U 13078A   23186.37993966  .00001777  00000+0  17521-3 0  9996
2 39490  82.4165 226.7143 0014635 262.9090  97.0465 14.91425585517058
COSMOS 2494 (SKRL-756 2)
1 39491U 13078B   23186.43638189  .00001876  00000+0  17746-3 0  9996
2 39491  82.4163 219.5668 0019287 233.7267 126.2171 14.93027749517432
